OBJECT_NAME,OBJECT_ID,EPOCH,MEAN_MOTION,ECCENTRICITY,INCLINATION,RA_OF_ASC_NODE,ARG_OF_PERICENTER,MEAN_ANOMALY,EPHEMERIS_TYPE,CLASSIFICATION_TYPE,NORAD_CAT_ID,ELEMENT_SET_NO,REV_AT_EPOCH,BSTAR,MEAN_MOTION_DOT,MEAN_MOTION_DDOT
SPACEMOBILE-008,2026-139A,2026-07-15T03:40:04.884384,15.12801933,.0005064,52.9948,135.5996,56.4295,303.7179,0,U,69589,999,421,.16116E-4,-.15E-6,0
SPACEMOBILE-009,2026-139B,2026-07-15T03:42:54.192096,15.12695262,.0005305,52.9939,135.6063,52.2602,307.8869,0,U,69590,999,421,.18841E-4,.32E-6,0
SPACEMOBILE-010,2026-139C,2026-07-15T03:47:22.769088,15.12527561,.0005235,52.9945,135.6285,44.2238,315.9170,0,U,69591,999,422,.27781E-4,.189E-5,0
